NORAD_CAT_ID,OBJECT_NAME,OBJECT_TYPE,EPOCH,MEAN_MOTION,ECCENTRICITY,INCLINATION,RA_OF_ASC_NODE,ARG_OF_PERICENTER,MEAN_ANOMALY,BSTAR,MEAN_MOTION_DOT,MEAN_MOTION_DDOT,TLE_LINE0,TLE_LINE1,TLE_LINE2,SEMIMAJOR_AXIS,PERIOD,APOGEE,PERIGEE,DECAYED
53929.0,STARLINK-5018,PAYLOAD,2024-02-15 10:31:29,15.08835562,0.0001669,53.2169,95.3085,85.3081,274.8102,2.9458e-05,1.81e-06,0.0,0 STARLINK-5018,1 53929U 22119AV  24046.43853709  .00000181  00000-0  29458-4 0  9990,2 53929  53.2169  95.3085 0001669  85.3081 274.8102 15.08835562 78117,6917.894,95.438,540.914,538.604,0.0
53929.0,STARLINK-5018,PAYLOAD,2024-02-15 20:03:48,15.08835803,0.0001773,53.2171,93.5226,82.8081,277.3113,3.083e-05,2.03e-06,0.0,0 STARLINK-5018,1 53929U 22119AV  24046.83597829  .00000203  00000-0  30830-4 0  9993,2 53929  53.2171  93.5226 0001773  82.8081 277.3113 15.08835803 78179,6917.893,95.438,540.985,538.532,0.0
53929.0,STARLINK-5018,PAYLOAD,2024-02-16 10:22:16,15.08846259,0.0001766,53.2175,90.8481,92.0472,268.0723,0.00011613,1.561e-05,0.0,0 STARLINK-5018,1 53929U 22119AV  24047.43213441  .00001561  00000-0  11613-3 0  9990,2 53929  53.2175  90.8481 0001766  92.0472 268.0723 15.08846259 77849,6917.861,95.437,540.948,538.505,0.0
53929.0,STARLINK-5018,PAYLOAD,2024-02-17 02:16:08,15.08833891,0.000177,53.216,87.8747,81.9336,278.1857,0.0001215,1.646e-05,0.0,0 STARLINK-5018,1 53929U 22119AV  24048.09454274  .00001646  00000-0  12150-3 0  9995,2 53929  53.2160  87.8747 0001770  81.9336 278.1857 15.08833891 77944,6917.899,95.438,540.989,538.54,0.0
53929.0,STARLINK-5018,PAYLOAD,2024-02-17 10:13:04,15.08838531,0.0001668,53.2166,86.3865,94.3731,265.7452,0.00015335,2.153e-05,0.0,0 STARLINK-5018,1 53929U 22119AV  24048.42574213  .00002153  00000-0  15335-3 0  9990,2 53929  53.2166  86.3865 0001668  94.3731 265.7452 15.08838531 78410,6917.885,95.438,540.904,538.596,0.0
53929.0,STARLINK-5018,PAYLOAD,2024-02-17 19:45:23,15.08838012,0.0001552,53.2159,84.6028,89.261,270.856,0.00012071,1.634e-05,0.0,0 STARLINK-5018,1 53929U 22119AV  24048.82318370  .00001634  00000-0  12071-3 0  9991,2 53929  53.2159  84.6028 0001552  89.2610 270.8560 15.08838012 78472,6917.886,95.438,540.825,538.678,0.0
53929.0,STARLINK-5018,PAYLOAD,2024-02-18 08:28:27,15.08844899,0.0001561,53.2156,82.2237,89.6384,270.4787,0.00021472,3.131e-05,0.0,0 STARLINK-5018,1 53929U 22119AV  24049.35310173  .00003131  00000-0  21472-3 0  9992,2 53929  53.2156  82.2237 0001561  89.6384 270.4787 15.08844899 78137,6917.865,95.437,540.81,538.651,0.0
53929.0,STARLINK-5018,PAYLOAD,2024-02-18 19:36:09,15.08846002,0.0001612,53.2156,80.1416,91.3153,268.8024,0.00024976,3.69e-05,0.0,0 STARLINK-5018,1 53929U 22119AV  24049.81678049  .00003690  00000-0  24976-3 0  9994,2 53929  53.2156  80.1416 0001612  91.3153 268.8024 15.08846002 78621,6917.862,95.437,540.842,538.612,0.0
53929.0,STARLINK-5018,PAYLOAD,2024-02-19 08:19:14,15.08857975,0.0001745,53.2159,77.7611,101.9426,258.1762,0.00039219,5.962e-05,0.0,0 STARLINK-5018,1 53929U 22119AV  24050.34669421  .00005962  00000-0  39219-3 0  9998,2 53929  53.2159  77.7611 0001745 101.9426 258.1762 15.08857975 78702,6917.825,95.436,540.898,538.483,0.0
53929.0,STARLINK-5018,PAYLOAD,2024-02-20 01:48:29,15.08843114,0.0001576,53.2147,74.491,91.8471,268.2702,4.9677e-05,5.03e-06,0.0,0 STARLINK-5018,1 53929U 22119AV  24051.07533781  .00000503  00000-0  49677-4 0  9994,2 53929  53.2147  74.4910 0001576  91.8471 268.2702 15.08843114 78395,6917.871,95.437,540.826,538.646,0.0
53929.0,STARLINK-5018,PAYLOAD,2024-02-20 08:10:02,15.0883774,0.0001511,53.2154,73.3014,88.2824,271.8341,-5.7084e-06,-3.79e-06,0.0,0 STARLINK-5018,1 53929U 22119AV  24051.34030160 -.00000379  00000-0 -57084-5 0  9992,2 53929  53.2154  73.3014 0001511  88.2824 271.8341 15.08837740 78855,6917.887,95.438,540.798,538.707,0.0
53929.0,STARLINK-5018,PAYLOAD,2024-02-21 08:00:48,15.08843722,0.0001517,53.2167,68.8421,86.7357,273.3809,9.2078e-05,1.178e-05,0.0,0 STARLINK-5018,1 53929U 22119AV  24052.33389952  .00001178  00000-0  92078-4 0  9995,2 53929  53.2167  68.8421 0001517  86.7357 273.3809 15.08843722 79001,6917.869,95.437,540.783,538.685,0.0
53929.0,STARLINK-5018,PAYLOAD,2024-02-21 17:33:07,15.08841086,0.000146,53.2163,67.058,88.1712,271.9448,-2.9518e-05,-7.58e-06,0.0,0 STARLINK-5018,1 53929U 22119AV  24052.73134025 -.00000758  00000-0 -29518-4 0  9992,2 53929  53.2163  67.0580 0001460  88.1712 271.9448 15.08841086 78645,6917.877,95.437,540.752,538.732,0.0
53929.0,STARLINK-5018,PAYLOAD,2024-02-22 04:40:50,15.0883132,0.0001642,53.2177,64.9809,97.9244,262.1935,0.00010657,1.408e-05,0.0,0 STARLINK-5018,1 53929U 22119AV  24053.19502846  .00001408  00000-0  10657-3 0  9997,2 53929  53.2177  64.9809 0001642  97.9244 262.1935 15.08831320 78711,6917.907,95.438,540.908,538.636,0.0
53929.0,STARLINK-5018,PAYLOAD,2024-02-22 07:51:36,15.08831631,0.0001647,53.2175,64.3847,98.527,261.5908,9.0254e-05,1.148e-05,0.0,0 STARLINK-5018,1 53929U 22119AV  24053.32750901  .00001148  00000-0  90254-4 0  9992,2 53929  53.2175  64.3847 0001647  98.5270 261.5908 15.08831631 79153,6917.906,95.438,540.91,538.632,0.0
53929.0,STARLINK-5018,PAYLOAD,2024-02-22 17:23:55,15.08836398,0.0001615,53.2185,62.5998,94.5837,265.5339,9.898e-05,1.287e-05,0.0,0 STARLINK-5018,1 53929U 22119AV  24053.72494960  .00001287  00000-0  98980-4 0  9994,2 53929  53.2185  62.5998 0001615  94.5837 265.5339 15.08836398 79215,6917.891,95.438,540.874,538.639,0.0
53929.0,STARLINK-5018,PAYLOAD,2024-02-23 07:42:23,15.0884115,0.0001599,53.2186,59.9236,97.4233,262.6941,8.1419e-05,1.008e-05,0.0,0 STARLINK-5018,1 53929U 22119AV  24054.32110835  .00001008  00000-0  81419-4 0  9997,2 53929  53.2186  59.9236 0001599  97.4233 262.6941 15.08841150 78885,6917.877,95.437,540.848,538.636,0.0
53929.0,STARLINK-5018,PAYLOAD,2024-02-23 17:14:42,15.08846671,0.0001644,53.2194,58.1391,96.0089,264.1091,-3.4002e-05,-8.29e-06,0.0,0 STARLINK-5018,1 53929U 22119AV  24054.71854733 -.00000829  00000-0 -34002-4 0  9990,2 53929  53.2194  58.1391 0001644  96.0089 264.1091 15.08846671 79362,6917.86,95.437,540.862,538.588,0.0
53929.0,STARLINK-5018,PAYLOAD,2024-02-24 04:22:25,15.0883572,0.0001578,53.2191,56.0572,95.8793,264.2379,0.00011314,1.513e-05,0.0,0 STARLINK-5018,1 53929U 22119AV  24055.18223384  .00001513  00000-0  11314-3 0  9993,2 53929  53.2191  56.0572 0001578  95.8793 264.2379 15.08835720 79017,6917.893,95.438,540.85,538.667,0.0
53929.0,STARLINK-5018,PAYLOAD,2024-02-24 09:08:33,15.08844411,0.0001593,53.2189,55.1647,94.9922,265.1252,0.00015777,2.224e-05,0.0,0 STARLINK-5018,1 53929U 22119AV  24055.38094844  .00002224  00000-0  15777-3 0  9999,2 53929  53.2189  55.1647 0001593  94.9922 265.1252 15.08844411 79048,6917.867,95.437,540.834,538.63,0.0
53929.0,STARLINK-5018,PAYLOAD,2024-02-24 17:05:29,15.08842255,0.0001604,53.2185,53.6758,88.8933,271.2243,0.00010618,1.402e-05,0.0,0 STARLINK-5018,1 53929U 22119AV  24055.71215120  .00001402  00000-0  10618-3 0  9994,2 53929  53.2185  53.6758 0001604  88.8933 271.2243 15.08842255 79511,6917.873,95.437,540.848,538.629,0.0
53929.0,STARLINK-5018,PAYLOAD,2024-02-25 07:23:57,15.08844106,0.000153,53.2194,51.0018,90.3589,269.7578,8.9506e-05,1.137e-05,0.0,0 STARLINK-5018,1 53929U 22119AV  24056.30831002  .00001137  00000-0  89506-4 0  9991,2 53929  53.2194  51.0018 0001530  90.3589 269.7578 15.08844106 79188,6917.868,95.437,540.791,538.674,0.0
53929.0,STARLINK-5018,PAYLOAD,2024-02-25 23:17:49,15.08841645,0.0001528,53.218,48.0266,93.5105,266.6062,0.00010801,1.431e-05,0.0,0 STARLINK-5018,1 53929U 22119AV  24056.97071119  .00001431  00000-0  10801-3 0  9997,2 53929  53.2180  48.0266 0001528  93.5105 266.6062 15.08841645 79707,6917.875,95.437,540.797,538.683,0.0
53929.0,STARLINK-5018,PAYLOAD,2024-02-26 05:39:21,15.08847527,0.00018,53.2197,46.839,78.7284,281.3911,0.00011446,1.534e-05,0.0,0 STARLINK-5018,1 53929U 22119AV  24057.23566806  .00001534  00000-0  11446-3 0  9999,2 53929  53.2197  46.8390 0001800  78.7284 281.3911 15.08847527 79741,6917.857,95.437,540.968,538.477,0.0
53929.0,STARLINK-5018,PAYLOAD,2024-02-26 23:08:36,15.08839127,0.0001166,53.2191,43.5681,96.5635,263.549,9.4196e-05,1.212e-05,0.0,0 STARLINK-5018,1 53929U 22119AV  24057.96431072  .00001212  00000-0  94196-4 0  9992,2 53929  53.2191  43.5681 0001166  96.5635 263.5490 15.08839127 79858,6917.883,95.438,540.555,538.941,0.0
53929.0,STARLINK-5018,PAYLOAD,2024-02-27 03:54:45,15.08841985,0.00017,53.2202,42.675,103.8475,256.2707,7.6932e-05,9.37e-06,0.0,0 STARLINK-5018,1 53929U 22119AV  24058.16302987  .00000937  00000-0  76932-4 0  9998,2 53929  53.2202  42.6750 0001700 103.8475 256.2707 15.08841985 79468,6917.874,95.437,540.915,538.563,0.0
53929.0,STARLINK-5018,PAYLOAD,2024-02-27 05:30:08,15.08845961,0.0001479,53.2193,42.3778,95.904,264.2121,2.2318e-05,6.7e-07,0.0,0 STARLINK-5018,1 53929U 22119AV  24058.22926889  .00000067  00000-0  22318-4 0  9991,2 53929  53.2193  42.3778 0001479  95.9040 264.2121 15.08845961 79890,6917.862,95.437,540.75,538.704,0.0
53929.0,STARLINK-5018,PAYLOAD,2024-02-27 22:59:23,15.08837228,0.0001689,53.2198,39.1081,91.7408,268.3777,2.1356e-05,5.2e-07,0.0,0 STARLINK-5018,1 53929U 22119AV  24058.95791575  .00000052  00000-0  21356-4 0  9998,2 53929  53.2198  39.1081 0001689  91.7408 268.3777 15.08837228 80005,6917.889,95.438,540.922,538.585,0.0
53929.0,STARLINK-5018,PAYLOAD,2024-02-28 05:20:56,15.08840383,0.0001515,53.2196,37.9196,93.8,266.3165,3.4318e-05,2.58e-06,0.0,0 STARLINK-5018,1 53929U 22119AV  24059.22287320  .00000258  00000-0  34318-4 0  9997,2 53929  53.2196  37.9196 0001515  93.8000 266.3165 15.08840383 79626,6917.879,95.438,540.792,538.696,0.0
53929.0,STARLINK-5018,PAYLOAD,2024-02-28 21:14:47,15.08834541,0.0001572,53.2191,34.9454,101.5302,258.5867,7.0596e-05,8.36e-06,0.0,0 STARLINK-5018,1 53929U 22119AV  24059.88527680  .00000836  00000-0  70596-4 0  9995,2 53929  53.2191  34.9454 0001572 101.5302 258.5867 15.08834541 80140,6917.897,95.438,540.85,538.675,0.0
